STARLINK-1154           
1 45198U 20012W   23166.93224639  .00001358  00000+0  11002-3 0  9991
2 45198  53.0539 185.7246 0001144  82.0236 278.0883 15.06395347183795
STARLINK-1197           
1 45199U 20012X   23166.93594009  .00002807  00000+0  20718-3 0  9997
2 45199  53.0518 185.7081 0000921  65.2261 294.8824 15.06413391183794
STARLINK-1199           
1 45201U 20012Z   23166.74426112 -.00000242  00000+0  26689-5 0  9996
2 45201  53.0539 186.5703 0001000  94.9205 265.1898 15.06397130184703
STARLINK-1206           
1 45204U 20012AC  23166.37198404 -.00000440  00000+0 -10682-4 0  9994
2 45204  53.0531 188.2382 0000901  93.9420 266.1672 15.06397267184664
STARLINK-1208           
1 45205U 20012AD  23166.46044452 -.00000029  00000+0  16962-4 0  9997
2 45205  53.0527 187.8431 0001063  94.9627 265.1484 15.06402142184681
STARLINK-1209           
1 45206U 20012AE  23167.01886290  .00000938  00000+0  81859-4 0  9999
2 45206  53.0534 165.3347 0000995  99.3766 260.7335 15.06393775184073
STARLINK-1210           
1 45207U 20012AF  23166.74795234  .00000446  00000+0  48827-4 0  9998
2 45207  53.0547 186.5521 0001049  97.5110 262.5998 15.06390392184708
STARLINK-1211           
1 45208U 20012AG  23166.83334491  .00004803  00000+0  33358-4 0  9997
2 45208  53.0089 160.3334 0002639 263.5430  27.6297 15.76712066  1307
STARLINK-1219           
1 45210U 20012AJ  23167.08336938  .00001247  00000+0  10257-3 0  9997
2 45210  53.0537 185.0391 0000607  89.9413 270.1645 15.06389903183811
STARLINK-1231           
1 45212U 20012AL  23166.38672811 -.00000500  00000+0 -14667-4 0  9997
2 45212  53.0539 188.1716 0001056  89.6421 270.4689 15.06398175184605
STARLINK-1232           
1 45213U 20012AM  23166.69467479  .00037154  00000+0  47123-3 0  9999
2 45213  53.0524  52.6061 0001338  42.5453 317.5662 15.59104343186600
STARLINK-1233           
1 45214U 20012AN  23167.08979835  .00001224  00000+0  10106-3 0  9998
2 45214  53.0531 185.0055 0000816  89.1959 270.9124 15.06390042183811
STARLINK-1245           
1 45215U 20012AP  23166.75532952 -.00001630  00000+0 -90585-4 0  9990
2 45215  53.0537 186.5196 0000900 101.2563 258.8527 15.06393016184649
STARLINK-1271           
1 45217U 20012AR  23166.33144257  .00000206  00000+0  32738-4 0  9995
2 45217  53.0532 188.4199 0001076  79.5171 280.5939 15.06399451184645
STARLINK-1187           
1 45219U 20012AT  23166.72767695  .00000596  00000+0  58871-4 0  9995
2 45219  53.0541 166.6535 0001018  81.1476 278.9628 15.06399523184996
STARLINK-1189           
1 45221U 20012AV  23166.73136395  .00000472  00000+0  50553-4 0  9998
2 45221  53.0541 166.6259 0001071  95.2723 264.8389 15.06396067184989
STARLINK-1191           
1 45222U 20012AW  23166.73872971  .00000000  00000+0  18898-4 0  9999
2 45222  53.0536 166.5906 0001082  87.0559 273.0554 15.06393565184986
STARLINK-1212           
1 45223U 20012AX  23166.22913073 -.00000127  00000+0  10387-4 0  9999
2 45223  53.0525 168.8715 0001289  93.2944 266.8193 15.06397612184913
STARLINK-1215           
1 45225U 20012AZ  23166.71293259  .00000368  00000+0  43566-4 0  9993
2 45225  53.0535 166.7021 0000859  82.3502 277.7584 15.06394310184933
STARLINK-1217           
1 45226U 20012BA  23166.72030576  .00000161  00000+0  29687-4 0  9995
2 45226  53.0536 166.6726 0001012  73.3946 286.7154 15.06397807184892
STARLINK-1221           
1 45227U 20012BB  23166.27799279 -.00000229  00000+0  35130-5 0  9995
2 45227  53.0538 168.6590 0001001  85.1623 274.9480 15.06398694184837
STARLINK-1222           
1 45228U 20012BC  23166.94514572  .00000300  00000+0  39048-4 0  9991
2 45228  53.0536 165.6680 0001056  77.0316 283.0791 15.06397213184070
STARLINK-1226           
1 45229U 20012BD  23166.70924707  .00000314  00000+0  39989-4 0  9990
2 45229  53.0539 166.7265 0000952  88.1460 271.9638 15.06393945184874
STARLINK-1227           
1 45230U 20012BE  23166.70556211  .00000432  00000+0  47906-4 0  9992
2 45230  53.0536 166.7388 0000962  89.7169 270.3930 15.06394254184998
STARLINK-1235           
1 45232U 20012BG  23166.71567333  .00000253  00000+0  35891-4 0  9993
2 45232  53.0535 166.6849 0000801  73.7621 286.3456 15.06397856184988
STARLINK-1238           
1 45233U 20012BH  23166.76269464  .00001857  00000+0  14357-3 0  9997
2 45233  53.0528 186.4874 0000856  95.2805 264.8281 15.06390758184691
STARLINK-1243           
1 45234U 20012BJ  23167.13313073  .00002779  00000+0  20542-3 0  9993
2 45234  53.0525 204.8192 0000884 108.5725 251.5360 15.06394249183573
STARLINK-1246           
1 45235U 20012BK  23166.52126634  .00002829  00000+0  20873-3 0  9994
2 45235  53.0525 207.5725 0000920  69.8973 290.2115 15.06400101184418
STARLINK-1247           
1 45236U 20012BL  23167.03361061  .00000774  00000+0  70838-4 0  9991
2 45236  53.0537 165.2691 0000820  90.1953 269.9129 15.06391474184092
STARLINK-1270           
1 45237U 20012BM  23166.72399464  .00000119  00000+0  26873-4 0  9998
2 45237  53.0530 166.6599 0001054  87.0892 273.0217 15.06393949184986
JCSAT-17                
1 45245U 20013A   23166.57132934 -.00000316  00000+0  00000+0 0  9997
2 45245   5.8371 347.2155 0002870 109.5936 148.4630  1.00271196 12234
GEO-KOMPSAT-2B          
1 45246U 20013B   23166.78035458 -.00000340  00000+0  00000+0 0  9991
2 45246   0.0306 235.2217 0000507  42.4524  35.2783  1.00269790 12271
XJS C                   
1 45249U 20014A   23166.87312484  .00330673  00000+0  12450-2 0  9991
2 45249  35.0066 226.4108 0004083 161.4650 198.6234 15.85917430186480
XJS D                   
1 45250U 20014B   23166.68166029  .00032109  00000+0  70067-3 0  9996
2 45250  35.0096 247.5106 0002729 156.3182 203.7665 15.43217258186251
XJS E                   
1 45251U 20014C   23166.92393017  .00073639  00000+0  82440-3 0  9994
2 45251  35.0124 245.7328 0004844 202.0466 158.0053 15.61488135186251
XJS F                   
1 45253U 20014E   23166.62831899  .00049718  00000+0  63543-3 0  9992
2 45253  35.0099 250.9114 0005689 200.3393 159.7107 15.58109895186171
MERIDIAN 9              
1 45254U 20015A   23165.82077625  .00000091  00000+0  00000+0 0  9990
2 45254  63.8079  83.0157 6917928 291.7960  11.1366  2.00607532 24251
BEIDOU-3 G2             
1 45344U 20017A   23166.72798718 -.00000139  00000+0  00000+0 0  9999
2 45344   2.0113  11.9765 0002867 103.6909 130.1882  1.00272219 12256
COSMOS 2545 [GLONASS-M] 
1 45358U 20018A   23166.15598886 -.00000068  00000+0  00000+0 0  9997
2 45358  64.8660 350.7349 0006799 240.6861 119.2694  2.13102648 25260
STARLINK-1279           
1 45360U 20019A   23166.68252224  .00020833  00000+0  14125-2 0  9999
2 45360  53.0541 296.8449 0000811  87.6528 272.4554 15.06423314179719
STARLINK-1301           
1 45361U 20019B   23166.67054506  .00022140  00000+0  14997-2 0  9992
2 45361  53.0546 306.8994 0001047  95.5608 264.5500 15.06422059179584
STARLINK-1306           
1 45362U 20019C   23166.71662129  .00016488  00000+0  11226-2 0  9994
2 45362  53.0549 326.6910 0001082  99.9420 260.1692 15.06420343179303
STARLINK-1313           
1 45364U 20019E   23166.62739769  .00044788  00000+0  21549-2 0  9994
2 45364  53.0565 289.5865 0001224 163.6626 196.4408 15.18369205179818
STARLINK-1262           
1 45366U 20019G   23166.70187473  .00018230  00000+0  12389-2 0  9999
2 45366  53.0537 326.7607 0000589 101.4703 258.6353 15.06419784179316
STARLINK-1273           
1 45367U 20019H   23166.72399253  .00019653  00000+0  13338-2 0  9998
2 45367  53.0545 326.6608 0001136  96.2547 263.8571 15.06421634179319
STARLINK-1276           
1 45368U 20019J   23166.76085132  .00020596  00000+0  13967-2 0  9997
2 45368  53.0548 326.4928 0000879  98.5778 261.5311 15.06422254179327
STARLINK-1277           
1 45369U 20019K   23166.75990717  .00020087  00000+0  13628-2 0  9990
2 45369  53.0543 326.4999 0000904  99.0835 261.0256 15.06420154179320
STARLINK-1281           
1 45370U 20019L   23166.74979018  .00018755  00000+0  12739-2 0  9993
2 45370  53.0550 326.5419 0001035  94.8929 265.2178 15.06421121179325
STARLINK-1287           
1 45371U 20019M   23166.71199455  .00017720  00000+0  12049-2 0  9995
2 45371  53.0544 326.7003 0001161  82.8852 277.2269 15.06419337179311
STARLINK-1288           
1 45372U 20019N   23166.72768094  .00020399  00000+0  13834-2 0  9997
2 45372  53.0538 326.6463 0001040  92.1455 267.9653 15.06425916179316
STARLINK-1295           
1 45373U 20019P   23166.84194606  .00028219  00000+0  19044-2 0  9991
2 45373  53.0538 326.1331 0001047  60.7075 299.4019 15.06427407179337
STARLINK-1300           
1 45374U 20019Q   23166.70556453  .00018817  00000+0  12781-2 0  9993
2 45374  53.0542 326.7414 0001080  93.1159 266.9954 15.06420087179313
STARLINK-1302           
1 45375U 20019R   23166.85299923  .00021374  00000+0  14482-2 0  9998
2 45375  53.0541 326.0834 0001069  84.7438 275.3673 15.06432796179339
STARLINK-1304           
1 45376U 20019S   23166.73873588  .00012987  00000+0  88887-3 0  9992
2 45376  53.0543 326.5955 0001103  99.9546 260.1568 15.06411398179316
STARLINK-1305           
1 45377U 20019T   23166.76453865  .00019516  00000+0  13246-2 0  9999
2 45377  53.0536 326.4817 0001003 101.7455 258.3646 15.06423546179320
STARLINK-1310           
1 45378U 20019U   23166.75347641  .00018597  00000+0  12634-2 0  9991
2 45378  53.0546 326.5255 0001158 104.3476 255.7642 15.06420551179322
STARLINK-1319           
1 45379U 20019V   23166.82350802  .00020787  00000+0  14093-2 0  9998
2 45379  53.0538 326.2160 0001007 107.2896 252.8203 15.06426119179335
STARLINK-1207           
1 45380U 20019W   23167.08705886  .00016864  00000+0  11478-2 0  9990
2 45380  53.0554 305.0283 0000693  66.1462 293.9600 15.06417640179659
STARLINK-1258           
1 45381U 20019X   23167.09811078  .00008923  00000+0  61694-3 0  9996
2 45381  53.0543 304.9787 0001644  83.8136 276.3040 15.06414206179643
